[{"OBJECT_NAME":"ONEWEB-0457","OBJECT_ID":"2022-012AB","EPOCH":"2025-08-07T04:26:53.662848","MEAN_MOTION":13.1039049,"ECCENTRICITY":0.00015487,"INCLINATION":87.8792,"RA_OF_ASC_NODE":98.9085,"ARG_OF_PERICENTER":92.7415,"MEAN_ANOMALY":267.389,"EPHEMERIS_TYPE":0,"CLASSIFICATION_TYPE":"U","NORAD_CAT_ID":51647,"ELEMENT_SET_NO":999,"REV_AT_EPOCH":16822,"BSTAR":-0.0068638075,"MEAN_MOTION_DOT":-2.383e-5,"MEAN_MOTION_DDOT":0},{"OBJECT_NAME":"ONEWEB-0458","OBJECT_ID":"2022-012AC","EPOCH":"2025-08-07T08:37:52.312800","MEAN_MOTION":13.10369536,"ECCENTRICITY":0.00019224,"INCLINATION":87.8773,"RA_OF_ASC_NODE":98.8477,"ARG_OF_PERICENTER":82.5191,"MEAN_ANOMALY":277.6155,"EPHEMERIS_TYPE":0,"CLASSIFICATION_TYPE":"U","NORAD_CAT_ID":51648,"ELEMENT_SET_NO":999,"REV_AT_EPOCH":16820,"BSTAR":0.0011728265,"MEAN_MOTION_DOT":4.22e-6,"MEAN_MOTION_DDOT":0},{"OBJECT_NAME":"ONEWEB-0461","OBJECT_ID":"2022-012AD","EPOCH":"2025-08-07T14:42:17.236800","MEAN_MOTION":13.17650309,"ECCENTRICITY":0.00016456,"INCLINATION":87.9025,"RA_OF_ASC_NODE":68.2488,"ARG_OF_PERICENTER":85.394,"MEAN_ANOMALY":274.7379,"EPHEMERIS_TYPE":0,"CLASSIFICATION_TYPE":"U","NORAD_CAT_ID":51649,"ELEMENT_SET_NO":999,"REV_AT_EPOCH":17259,"BSTAR":0.00013527433,"MEAN_MOTION_DOT":6.5e-7,"MEAN_MOTION_DDOT":0},{"OBJECT_NAME":"ONEWEB-0463","OBJECT_ID":"2022-012AE","EPOCH":"2025-08-07T12:26:13.266240","MEAN_MOTION":13.17648417,"ECCENTRICITY":0.00018106,"INCLINATION":87.9021,"RA_OF_ASC_NODE":68.3314,"ARG_OF_PERICENTER":86.7386,"MEAN_ANOMALY":273.3953,"EPHEMERIS_TYPE":0,"CLASSIFICATION_TYPE":"U","NORAD_CAT_ID":51650,"ELEMENT_SET_NO":999,"REV_AT_EPOCH":17236,"BSTAR":-4.251318e-6,"MEAN_MOTION_DOT":1.1e-7,"MEAN_MOTION_DDOT":0},{"OBJECT_NAME":"ONEWEB-0464","OBJECT_ID":"2022-012AF","EPOCH":"2025-08-07T14:02:57.905952","MEAN_MOTION":13.10371495,"ECCENTRICITY":0.00019894,"INCLINATION":87.879,"RA_OF_ASC_NODE":98.8384,"ARG_OF_PERICENTER":71.1372,"MEAN_ANOMALY":288.9971,"EPHEMERIS_TYPE":0,"CLASSIFICATION_TYPE":"U","NORAD_CAT_ID":51651,"ELEMENT_SET_NO":999,"REV_AT_EPOCH":16825,"BSTAR":0.001526675,"MEAN_MOTION_DOT":5.46e-6,"MEAN_MOTION_DDOT":0},{"OBJECT_NAME":"ONEWEB-0468","OBJECT_ID":"2022-012AG","EPOCH":"2025-08-07T08:42:38.822976","MEAN_MOTION":13.10369147,"ECCENTRICITY":0.00018459,"INCLINATION":87.8789,"RA_OF_ASC_NODE":98.8745,"ARG_OF_PERICENTER":78.4069,"MEAN_ANOMALY":281.7265,"EPHEMERIS_TYPE":0,"CLASSIFICATION_TYPE":"U","NORAD_CAT_ID":51652,"ELEMENT_SET_NO":999,"REV_AT_EPOCH":16820,"BSTAR":0.00064374196,"MEAN_MOTION_DOT":2.37e-6,"MEAN_MOTION_DDOT":0},{"OBJECT_NAME":"ONEWEB-0473","OBJECT_ID":"2022-012AH","EPOCH":"2025-08-07T10:11:06.544320","MEAN_MOTION":13.103726,"ECCENTRICITY":0.00019151,"INCLINATION":87.8792,"RA_OF_ASC_NODE":98.8654,"ARG_OF_PERICENTER":79.3262,"MEAN_ANOMALY":280.8081,"EPHEMERIS_TYPE":0,"CLASSIFICATION_TYPE":"U","NORAD_CAT_ID":51653,"ELEMENT_SET_NO":999,"REV_AT_EPOCH":16821,"BSTAR":0.0018449334,"MEAN_MOTION_DOT":6.57e-6,"MEAN_MOTION_DDOT":0},{"OBJECT_NAME":"ONEWEB-0474","OBJECT_ID":"2022-012AJ","EPOCH":"2025-08-07T11:49:06.550752","MEAN_MOTION":13.10375706,"ECCENTRICITY":0.0002018,"INCLINATION":87.8793,"RA_OF_ASC_NODE":98.8118,"ARG_OF_PERICENTER":75.5998,"MEAN_ANOMALY":284.5354,"EPHEMERIS_TYPE":0,"CLASSIFICATION_TYPE":"U","NORAD_CAT_ID":51654,"ELEMENT_SET_NO":999,"REV_AT_EPOCH":16821,"BSTAR":0.0016178362,"MEAN_MOTION_DOT":5.77e-6,"MEAN_MOTION_DDOT":0},{"OBJECT_NAME":"ONEWEB-0475","OBJECT_ID":"2022-012AK","EPOCH":"2025-08-07T14:32:34.952640","MEAN_MOTION":13.17650121,"ECCENTRICITY":0.00025778,"INCLINATION":87.9026,"RA_OF_ASC_NODE":68.2951,"ARG_OF_PERICENTER":84.4726,"MEAN_ANOMALY":275.67,"EPHEMERIS_TYPE":0,"CLASSIFICATION_TYPE":"U","NORAD_CAT_ID":51655,"ELEMENT_SET_NO":999,"REV_AT_EPOCH":17239,"BSTAR":0.00014202173,"MEAN_MOTION_DOT":6.8e-7,"MEAN_MOTION_DDOT":0},{"OBJECT_NAME":"ONEWEB-0490","OBJECT_ID":"2022-138A","EPOCH":"2025-08-07T11:31:55.137792","MEAN_MOTION":13.19724646,"ECCENTRICITY":0.00018904,"INCLINATION":87.9244,"RA_OF_ASC_NODE":7.3103,"ARG_OF_PERICENTER":88.4975,"MEAN_ANOMALY":271.6374,"EPHEMERIS_TYPE":0,"CLASSIFICATION_TYPE":"U","NORAD_CAT_ID":54113,"ELEMENT_SET_NO":999,"REV_AT_EPOCH":13545,"BSTAR":9.7108424e-5,"MEAN_MOTION_DOT":5.2e-7,"MEAN_MOTION_DDOT":0},{"OBJECT_NAME":"ONEWEB-0492","OBJECT_ID":"2022-138B","EPOCH":"2025-08-07T10:19:09.481440","MEAN_MOTION":13.19727062,"ECCENTRICITY":0.00017241,"INCLINATION":87.924,"RA_OF_ASC_NODE":7.3438,"ARG_OF_PERICENTER":89.0412,"MEAN_ANOMALY":271.0919,"EPHEMERIS_TYPE":0,"CLASSIFICATION_TYPE":"U","NORAD_CAT_ID":54114,"ELEMENT_SET_NO":999,"REV_AT_EPOCH":13545,"BSTAR":0.00017774208,"MEAN_MOTION_DOT":8.4e-7,"MEAN_MOTION_DDOT":0},{"OBJECT_NAME":"ONEWEB-0495","OBJECT_ID":"2022-138C","EPOCH":"2025-08-07T15:14:49.572672","MEAN_MOTION":13.19725112,"ECCENTRICITY":0.00022674,"INCLINATION":87.9238,"RA_OF_ASC_NODE":7.3145,"ARG_OF_PERICENTER":78.8465,"MEAN_ANOMALY":281.2923,"EPHEMERIS_TYPE":0,"CLASSIFICATION_TYPE":"U","NORAD_CAT_ID":54115,"ELEMENT_SET_NO":999,"REV_AT_EPOCH":13546,"BSTAR":0.00012485522,"MEAN_MOTION_DOT":6.3e-7,"MEAN_MOTION_DDOT":0},{"OBJECT_NAME":"ONEWEB-0497","OBJECT_ID":"2022-138D","EPOCH":"2025-08-07T10:05:29.995584","MEAN_MOTION":13.19724858,"ECCENTRICITY":0.00018754,"INCLINATION":87.9244,"RA_OF_ASC_NODE":7.3291,"ARG_OF_PERICENTER":92.3876,"MEAN_ANOMALY":267.7471,"EPHEMERIS_TYPE":0,"CLASSIFICATION_TYPE":"U","NORAD_CAT_ID":54116,"ELEMENT_SET_NO":999,"REV_AT_EPOCH":13542,"BSTAR":0.00021918355,"MEAN_MOTION_DOT":1.01e-6,"MEAN_MOTION_DDOT":0},{"OBJECT_NAME":"ONEWEB-0499","OBJECT_ID":"2022-138E","EPOCH":"2025-08-07T11:29:40.389216","MEAN_MOTION":13.197269,"ECCENTRICITY":0.00022179,"INCLINATION":87.9239,"RA_OF_ASC_NODE":7.336,"ARG_OF_PERICENTER":96.0831,"MEAN_ANOMALY":264.0554,"EPHEMERIS_TYPE":0,"CLASSIFICATION_TYPE":"U","NORAD_CAT_ID":54117,"ELEMENT_SET_NO":999,"REV_AT_EPOCH":13544,"BSTAR":0.00017453541,"MEAN_MOTION_DOT":8.3e-7,"MEAN_MOTION_DDOT":0},{"OBJECT_NAME":"ONEWEB-0500","OBJECT_ID":"2022-138F","EPOCH":"2025-08-07T09:45:01.206144","MEAN_MOTION":13.1972688,"ECCENTRICITY":0.00017708,"INCLINATION":87.9247,"RA_OF_ASC_NODE":7.3352,"ARG_OF_PERICENTER":94.4387,"MEAN_ANOMALY":265.6948,"EPHEMERIS_TYPE":0,"CLASSIFICATION_TYPE":"U","NORAD_CAT_ID":54118,"ELEMENT_SET_NO":999,"REV_AT_EPOCH":13544,"BSTAR":3.6353666e-5,"MEAN_MOTION_DOT":2.7e-7,"MEAN_MOTION_DDOT":0},{"OBJECT_NAME":"ONEWEB-0501","OBJECT_ID":"2022-138G","EPOCH":"2025-08-07T10:28:15.909600","MEAN_MOTION":13.1972545,"ECCENTRICITY":0.00021099,"INCLINATION":87.9245,"RA_OF_ASC_NODE":7.3219,"ARG_OF_PERICENTER":85.8974,"MEAN_ANOMALY":274.2399,"EPHEMERIS_TYPE":0,"CLASSIFICATION_TYPE":"U","NORAD_CAT_ID":54119,"ELEMENT_SET_NO":999,"REV_AT_EPOCH":13542,"BSTAR":0.0002659377,"MEAN_MOTION_DOT":1.19e-6,"MEAN_MOTION_DDOT":0},{"OBJECT_NAME":"ONEWEB-0502","OBJECT_ID":"2022-138H","EPOCH":"2025-08-07T10:07:47.143488","MEAN_MOTION":13.19726678,"ECCENTRICITY":0.00021121,"INCLINATION":87.9242,"RA_OF_ASC_NODE":7.3082,"ARG_OF_PERICENTER":91.2112,"MEAN_ANOMALY":268.9263,"EPHEMERIS_TYPE":0,"CLASSIFICATION_TYPE":"U","NORAD_CAT_ID":54120,"ELEMENT_SET_NO":999,"REV_AT_EPOCH":13544,"BSTAR":0.00017578367,"MEAN_MOTION_DOT":8.3e-7,"MEAN_MOTION_DDOT":0},{"OBJECT_NAME":"ONEWEB-0503","OBJECT_ID":"2022-138J","EPOCH":"2025-08-07T15:19:22.468800","MEAN_MOTION":13.19727152,"ECCENTRICITY":0.00020745,"INCLINATION":87.9243,"RA_OF_ASC_NODE":7.2699,"ARG_OF_PERICENTER":101.4999,"MEAN_ANOMALY":258.6367,"EPHEMERIS_TYPE":0,"CLASSIFICATION_TYPE":"U","NORAD_CAT_ID":54121,"ELEMENT_SET_NO":999,"REV_AT_EPOCH":13546,"BSTAR":0.00015579143,"MEAN_MOTION_DOT":7.5e-7,"MEAN_MOTION_DDOT":0},{"OBJECT_NAME":"ONEWEB-0504","OBJECT_ID":"2022-138K","EPOCH":"2025-08-07T22:17:53.890080","MEAN_MOTION":13.19725698,"ECCENTRICITY":0.0002133,"INCLINATION":87.9246,"RA_OF_ASC_NODE":7.2279,"ARG_OF_PERICENTER":92.1427,"MEAN_ANOMALY":267.995,"EPHEMERIS_TYPE":0,"CLASSIFICATION_TYPE":"U","NORAD_CAT_ID":54122,"ELEMENT_SET_NO":999,"REV_AT_EPOCH":13638,"BSTAR":-0.00016854,"MEAN_MOTION_DOT":-5.5e-7,"MEAN_MOTION_DDOT":0},{"OBJECT_NAME":"ONEWEB-0505","OBJECT_ID":"2022-138L","EPOCH":"2025-08-07T11:18:16.527168","MEAN_MOTION":13.19723843,"ECCENTRICITY":0.00022959,"INCLINATION":87.9244,"RA_OF_ASC_NODE":7.308,"ARG_OF_PERICENTER":85.3407,"MEAN_ANOMALY":274.7988,"EPHEMERIS_TYPE":0,"CLASSIFICATION_TYPE":"U","NORAD_CAT_ID":54123,"ELEMENT_SET_NO":999,"REV_AT_EPOCH":13543,"BSTAR":0.00010169382,"MEAN_MOTION_DOT":5.4e-7,"MEAN_MOTION_DDOT":0},{"OBJECT_NAME":"ONEWEB-0506","OBJECT_ID":"2022-138M","EPOCH":"2025-08-07T10:41:53.968992","MEAN_MOTION":13.19726385,"ECCENTRICITY":0.00019998,"INCLINATION":87.9243,"RA_OF_ASC_NODE":7.3099,"ARG_OF_PERICENTER":91.6458,"MEAN_ANOMALY":268.4904,"EPHEMERIS_TYPE":0,"CLASSIFICATION_TYPE":"U","NORAD_CAT_ID":54124,"ELEMENT_SET_NO":999,"REV_AT_EPOCH":13542,"BSTAR":0.00017989953,"MEAN_MOTION_DOT":8.5e-7,"MEAN_MOTION_DDOT":0},{"OBJECT_NAME":"ONEWEB-0507","OBJECT_ID":"2022-138N","EPOCH":"2025-08-07T11:11:27.132000","MEAN_MOTION":13.19724806,"ECCENTRICITY":0.00019433,"INCLINATION":87.9237,"RA_OF_ASC_NODE":7.3592,"ARG_OF_PERICENTER":88.385,"MEAN_ANOMALY":271.7505,"EPHEMERIS_TYPE":0,"CLASSIFICATION_TYPE":"U","NORAD_CAT_ID":54125,"ELEMENT_SET_NO":999,"REV_AT_EPOCH":13547,"BSTAR":0.00019137812,"MEAN_MOTION_DOT":9.0e-7,"MEAN_MOTION_DDOT":0},{"OBJECT_NAME":"ONEWEB-0508","OBJECT_ID":"2022-138P","EPOCH":"2025-08-07T11:06:55.130112","MEAN_MOTION":13.19726035,"ECCENTRICITY":0.00019909,"INCLINATION":87.9242,"RA_OF_ASC_NODE":7.3428,"ARG_OF_PERICENTER":83.5741,"MEAN_ANOMALY":276.5619,"EPHEMERIS_TYPE":0,"CLASSIFICATION_TYPE":"U","NORAD_CAT_ID":54126,"ELEMENT_SET_NO":999,"REV_AT_EPOCH":13545,"BSTAR":-0.00020660105,"MEAN_MOTION_DOT":-7.0e-7,"MEAN_MOTION_DDOT":0}]
